264P/Larsen,e,25.2454,220.3816,346.7203,3.888657,0.1285300,0.37562986,131.8284,05/26.0/2022,2000,g 13.0,4.0
# From MPC 79870
265P/LINEAR,e,14.3650,342.9259,33.4597,4.254663,0.1123069,0.64759974,52.8832,05/26.0/2022,2000,g 14.5,4.0
# From MPEC 2021-F20
266P/Christensen,e,3.4271,4.9985,97.7060,3.532494,0.1484506,0.33962401,113.8304,05/26.0/2022,2000,g 14.7,4.0
# From MPC114608
267P/LONEOS,e,6.1416,228.5832,114.2072,3.211247,0.1712748,0.61441221,240.1703,05/26.0/2022,2000,g 19.5,4.0
# From MPC 92277
268P/Bernardi,e,15.8800,127.0139,359.8007,4.560715,0.1011940,0.47789469,264.9381,05/26.0/2022,2000,g 14.0,4.0
# From MPC104795
269P/Jedicke,e,7.0775,241.7291,225.7531,7.071965,0.0524076,0.43100181,146.5290,05/26.0/2022,2000,g 10.0,4.0
# From MPC 88332
270P/Gehrels,e,2.9225,223.0101,209.7747,6.661564,0.0573244,0.46838226,187.6353,05/26.0/2022,2000,g  8.0,4.0
# From MPC 92277
271P/van Houten-Lemmon,e,6.8723,9.3181,36.3863,7.038754,0.0527789,0.39517349,170.8262,05/26.0/2022,2000,g 11.0,4.0
# From MPEC 2022-C56
272P/NEAT,e,18.0744,109.4703,27.8991,4.459915,0.1046440,0.45465717,354.5523,05/26.0/2022,2000,g 16.0,2.0
# From MPC 82723
273P/Pons-Gambart,e,136.7606,320.3993,20.3250,31.92909,0.0054629,0.97423904,0.0000,12/20.1464/2012,2000,g 11.5,4.0
# From MPEC 2022-K19
274P/Tombaugh-Tenagra,e,15.8155,81.3389,38.4686,4.375726,0.1076785,0.43937020,5.1189,05/26.0/2022,2000,g 13.0,4.0
# From MPC 81862
275P/Hermann,e,21.2755,348.7575,174.0046,5.775787,0.0710047,0.71262976,244.9936,05/26.0/2022,2000,g 17.0,4.0
# From MPEC 2022-K19
276P/Vorobjov,e,14.8101,211.3633,199.5561,5.322501,0.0802658,0.26762101,285.1410,05/26.0/2022,2000,g 11.5,4.0
# From MPEC 2021-F20
277P/LINEAR,e,16.7769,276.3275,152.3174,3.853430,0.1302965,0.50594262,66.6828,05/26.0/2022,2000,g 15.1,4.0
# From MPEC 2021-S45
278P/McNaught,e,6.6962,15.3823,237.7972,3.687782,0.1391734,0.43607981,86.4778,05/26.0/2022,2000,g 14.0,4.0
# From MPEC 2022-K19
279P/LaSagra,e,5.0525,346.2332,5.8481,3.572930,0.1459376,0.39870506,312.0477,05/26.0/2022,2000,g 14.0,4.0
# From MPEC 2022-K19
280P/Larsen,e,11.7738,131.3932,104.7543,4.530016,0.1022244,0.41733243,315.4579,05/26.0/2022,2000,g 12.5,4.0
# From MPEC 2021-W31
281P/MOSS,e,4.7189,87.1806,26.6636,4.874916,0.0915700,0.17239653,336.9546,05/26.0/2022,2000,g 11.0,4.0
# From MPC133426
282P/,e,5.8117,9.2978,217.6322,4.239514,0.1129094,0.18833875,24.0908,05/26.0/2022,2000,g 13.5,2.0
# From MPEC 2022-K19
283P/Spacewatch,e,14.4552,161.1294,22.2350,4.137042,0.1171303,0.48461880,30.4575,05/26.0/2022,2000,g 16.0,2.0
# From MPEC 2022-K19
284P/McNaught,e,11.8613,144.2609,202.4115,3.676073,0.1398388,0.37551944,35.7183,05/26.0/2022,2000,g 13.0,4.0
# From MPC 85339
285P/LINEAR,e,25.0383,185.5078,178.4387,4.507769,0.1029821,0.61859508,336.1714,05/26.0/2022,2000,g 15.0,4.0
# From MPEC 2021-O56
286P/Christensen,e,17.0438,283.9554,24.8596,4.110764,0.1182552,0.42565357,1.5789,05/26.0/2022,2000,g 14.0,4.0
# From MPC 96868
287P/Christensen,e,16.3200,139.0419,189.0605,4.163219,0.1160273,0.27104971,313.0487,05/26.0/2022,2000,g 13.5,4.0
# From MPC133426
288P/,e,3.2380,83.1277,280.2453,3.049616,0.1850702,0.20090491,15.7598,05/26.0/2022,2000,g 16.0,2.0
# From MPEC 2022-K19
289P/Blanpain,e,5.8971,68.8829,9.8438,3.046025,0.1853975,0.68573071,164.4442,05/26.0/2022,2000,g 19.0,4.0
# From MPC 95214
290P/Jager,e,20.0639,302.6796,181.8804,6.215305,0.0636078,0.62756038,193.4961,05/26.0/2022,2000,g 10.5,4.0
# From MPEC 2021-N06
291P/NEAT,e,6.2985,237.8156,173.5916,4.540088,0.1018844,0.43565462,324.9714,05/26.0/2022,2000,g 13.0,4.0
# From MPEC 2022-K19
292P/Li,e,24.2778,90.9479,319.4878,6.104119,0.0653536,0.58912466,198.3671,05/26.0/2022,2000,g 12.5,4.0
# From MPEC 2021-S45
293P/Spacewatch,e,9.0578,78.3993,40.9946,3.642100,0.1418000,0.41825367,74.1449,05/26.0/2022,2000,g 14.5,4.0
# From MPEC 2020-SI8
294P/LINEAR,e,18.0368,312.0760,235.5419,3.189846,0.1730014,0.60180196,156.5182,05/26.0/2022,2000,g 15.5,4.0
# From MPEC 2022-K19
295P/LINEAR,e,21.0740,7.4391,72.8727,5.305911,0.0806425,0.61664673,237.4343,05/26.0/2022,2000,g 12.0,4.0
# From MPEC 2021-N06
296P/Garradd,e,25.2350,263.5763,350.0380,3.493811,0.1509228,0.47873468,92.8702,05/26.0/2022,2000,g 14.0,4.0
# From MPC102956
297P/Beshore,e,10.3107,97.5439,132.9859,3.451942,0.1536770,0.32034591,74.8070,05/26.0/2022,2000,g 15.0,4.0
# From MPC114609
298P/Christensen,e,7.8708,52.8219,100.6541,3.590689,0.1448563,0.38634787,90.8076,05/26.0/2022,2000,g 15.0,4.0
# From MPEC 2022-CN4
299P/Catalina-PANSTARRS,e,10.4698,271.6166,323.8221,4.386934,0.1072661,0.28105331,284.2674,05/26.0/2022,2000,g 11.5,4.0
# From MPEC 2022-ED3
300P/Catalina,e,5.6740,95.6355,222.9305,2.699464,0.2222224,0.69175415,288.8696,05/26.0/2022,2000,g 16.0,4.0
# From MPC 89014
301P/LINEAR-NEAT,e,10.3396,351.1746,193.6236,5.739723,0.0716750,0.58520733,202.9784,05/26.0/2022,2000,g 13.0,4.0
# From MPEC 2022-K19
302P/Lemmon-PANSTARRS,e,6.0336,121.7453,208.3797,4.274400,0.1115299,0.23031561,246.5799,05/26.0/2022,2000,g 12.5,4.0
# From MPC 92278
303P/NEAT,e,7.0216,347.9720,356.9408,5.045223,0.0869728,0.51091854,241.2914,05/26.0/2022,2000,g 13.5,4.0
# From MPEC 2022-K19
304P/Ory,e,2.6071,58.9146,335.2476,3.150737,0.1762324,0.60077249,114.7877,05/26.0/2022,2000,g 16.5,4.0
# From MPC101100
305P/Skiff,e,11.6612,240.1034,147.3345,4.641945,0.0985494,0.69378010,270.6984,05/26.0/2022,2000,g 18.0,4.0
# From MPC 92278
306P/LINEAR,e,8.3112,341.3734,0.8692,3.123784,0.1785182,0.59329289,152.4359,05/26.0/2022,2000,g 19.0,4.0
# From MPC 92278
307P/LINEAR,e,4.4356,158.1683,222.1354,5.790732,0.0707300,0.67531869,191.7005,05/26.0/2022,2000,g 15.0,4.0
# From MPEC 2022-C56
308P/Lagerkvist-Carsenty,e,4.8530,63.0547,333.6156,6.601016,0.0581150,0.36421384,149.5931,05/26.0/2022,2000,g 13.0,2.0
# From MPC 94284
309P/LINEAR,e,17.0237,10.1471,49.9370,4.372606,0.1077938,0.61799696,287.4295,05/26.0/2022,2000,g 15.0,4.0
# From MPC 98566
310P/Hill,e,13.1278,8.9218,31.7783,4.180340,0.1153152,0.42215524,300.4629,05/26.0/2022,2000,g 13.5,4.0
# From MPEC 2021-BE3
311P/PANSTARRS,e,4.9697,279.2140,144.5230,2.188351,0.3044589,0.11575615,181.3417,05/26.0/2022,2000,g 17.0,4.0
# From MPEC 2021-BE3
312P/NEAT,e,19.7676,144.6703,207.6111,3.468451,0.1525811,0.42786618,92.7442,05/26.0/2022,2000,g 16.0,4.0
# From MPEC 2021-S45
313P/Gibbs,e,10.9804,105.9681,254.7881,3.163608,0.1751580,0.23503947,134.8981,05/26.0/2022,2000,g 15.0,4.0
# From MPC105243
314P/Montani,e,3.9831,267.6068,214.0035,7.262247,0.0503614,0.41629795,103.5793,05/26.0/2022,2000,g  9.5,4.0
# From MPEC 2021-N06
315P/LONEOS,e,17.7408,68.8164,65.7307,4.940065,0.0897646,0.52094218,180.1768,05/26.0/2022,2000,g 11.0,4.0
# From MPC 92279
316P/LONEOS-Christensen,e,9.8261,246.4232,192.4681,4.374802,0.1077126,0.15597595,262.7439,05/26.0/2022,2000,g 13.5,4.0
# From MPEC 2020-C98
317P/WISE,e,11.9515,275.4908,334.8550,2.962957,0.1932484,0.57050083,117.2914,05/26.0/2022,2000,g 17.5,4.0
# From MPC102103
318P/McNaught-Hartley,e,17.8849,35.5304,313.2703,7.501737,0.0479691,0.67528816,115.3241,05/26.0/2022,2000,g  8.5,6.0
# From MPC 97499
319P/Catalina-McNaught,e,15.0946,111.3686,203.6774,3.567156,0.1462921,0.66669013,8.1293,05/26.0/2022,2000,g 15.0,4.0
# From MPC 96281
320P/McNaught,e,4.9078,295.9381,0.7831,3.093823,0.1811177,0.68551847,89.4585,05/26.0/2022,2000,g 20.5,4.0
# From MPC105243
321P/SOHO,e,20.0935,165.0170,172.7491,2.423415,0.2612537,0.98111122,0.0000,10/26.5261/2023,2000,g 20.0,4.0
# From MPC102103
322P/SOHO,e,11.4683,351.5312,56.8720,2.507849,0.2481715,0.97992000,0.0000,08/21.0819/2023,2000,g 19.0,4.0
# From MPEC 2016-Y36
323P/SOHO,e,5.3332,324.3872,353.0501,2.583099,0.2374064,0.98481484,0.0000,01/17.8074/2021,2000,g 20.0,4.0
# From MPEC 2021-W31
324P/LaSagra,e,21.4043,270.5849,57.5351,3.094515,0.1810569,0.15387074,69.8505,05/26.0/2022,2000,g 13.0,4.0
# From MPEC 2022-K19
325P/Yang-Gao,e,16.6944,257.5595,343.7046,3.522692,0.1490707,0.59337110,8.6176,05/26.0/2022,2000,g 14.0,4.0
# From MPC103849
326P/Hill,e,2.4710,99.8088,278.6314,4.062688,0.1203605,0.31810377,289.7649,05/26.0/2022,2000,g 13.5,4.0
# From MPC 97499
327P/Van Ness,e,36.2512,173.9849,185.0435,3.562788,0.1465612,0.56325382,345.4277,05/26.0/2022,2000,g 16.0,4.0
# From MPC109148
328P/LONEOS-Tucker,e,17.6731,341.6348,30.5314,4.192547,0.1148120,0.55258482,268.8514,05/26.0/2022,2000,g 14.5,4.0
# From MPC101101
329P/LINEAR-Catalina,e,21.6900,87.6622,343.5310,5.189592,0.0833689,0.67775607,197.4735,05/26.0/2022,2000,g 13.5,4.0
# From MPEC 2022-K19
330P/Catalina,e,15.7010,293.0884,188.8907,6.624747,0.0578030,0.54847620,121.3592,05/26.0/2022,2000,g 12.0,4.0
# From MPEC 2022-C56
331P/Gibbs,e,9.7382,216.7578,184.2944,3.005174,0.1891906,0.04116955,113.6483,05/26.0/2022,2000,g 12.0,4.0
# From MPEC 2016-K18
332P/Ikeya-Murakami,e,9.3801,3.7864,152.3222,3.088444,0.1815911,0.48937061,50.9584,05/26.0/2022,2000,g 18.0,4.0
# From MPEC 2016-EI8
332P-B/Ikeya-Murakami,e,9.3805,3.8028,152.3711,3.082329,0.1821317,0.48970701,359.9699,03/17.0/2016,2000,g 19.0,4.0
# From MPEC 2016-K18
332P-C/Ikeya-Murakami,e,9.3791,3.7868,152.3134,3.088410,0.1815941,0.48937607,50.9734,05/26.0/2022,2000,g 16.5,4.0
# From MPEC 2016-ED0
332P-D/Ikeya-Murakami,e,9.3761,3.7923,152.4393,3.081138,0.1822373,0.48977814,359.9486,03/17.0/2016,2000,g 19.0,4.0
# From MPEC 2016-ED0
332P-E/Ikeya-Murakami,e,9.3774,3.8228,152.2825,3.079877,0.1823493,0.48922008,359.9889,03/17.0/2016,2000,g 21.0,4.0
# From MPEC 2016-ED0
332P-F/Ikeya-Murakami,e,9.5293,3.4757,152.8203,3.163214,0.1751908,0.49918860,359.8501,03/17.0/2016,2000,g 21.0,4.0
# From MPEC 2016-ED0
332P-G/Ikeya-Murakami,e,9.2523,3.6955,154.4000,3.050519,0.1849880,0.49200362,359.9006,03/19.0/2016,2000,g 19.0,4.0
# From MPC100285
332P-H/Ikeya-Murakami,e,9.3796,3.7866,152.3141,3.088594,0.1815778,0.48941130,50.9038,05/26.0/2022,2000,g 19.0,4.0
# From MPEC 2016-ED0
332P-I/Ikeya-Murakami,e,9.3791,3.8048,152.3297,3.081767,0.1821815,0.48955490,359.9360,03/17.0/2016,2000,g 20.5,2.0
# From MPEC 2016-EI8
